OBJECT_NAME,OBJECT_ID,EPOCH,MEAN_MOTION,ECCENTRICITY,INCLINATION,RA_OF_ASC_NODE,ARG_OF_PERICENTER,MEAN_ANOMALY,EPHEMERIS_TYPE,CLASSIFICATION_TYPE,NORAD_CAT_ID,ELEMENT_SET_NO,REV_AT_EPOCH,BSTAR,MEAN_MOTION_DOT,MEAN_MOTION_DDOT
ONEWEB-0068,2020-020Y,2026-07-20T21:02:10.267872,13.11418050,.00016998,87.8893,14.3571,95.1747,264.9575,0,U,45446,999,30701,-.32951791E-2,-.1155E-4,0
ONEWEB-0046,2020-020Z,2026-07-20T20:50:09.811968,13.11415356,.00015918,87.8889,14.3623,88.0520,272.0790,0,U,45447,999,30702,.62642548E-3,.235E-5,0
ONEWEB-0063,2020-020AA,2026-07-20T21:31:52.235040,13.11417117,.00018157,87.8898,14.3586,82.6485,277.4850,0,U,45448,999,30711,-.14269206E-2,-.493E-5,0
ONEWEB-0019,2020-020AB,2026-07-20T22:27:38.938176,13.11415800,.00020112,87.8893,14.3352,95.8100,264.3257,0,U,45449,999,30696,.14461172E-2,.525E-5,0
ONEWEB-0094,2020-020AC,2026-07-20T22:02:48.044832,13.17649298,.00018592,87.9161,359.1418,101.1160,259.0181,0,U,45450,999,31075,-.8027785E-5,.1E-6,0
ONEWEB-0087,2020-020AD,2026-07-20T21:46:07.426560,13.11418495,.00015964,87.8907,14.3328,97.8977,262.2333,0,U,45451,999,30700,-.52679425E-3,-.174E-5,0
ONEWEB-0082,2020-020AE,2026-07-20T21:41:14.177184,13.11418859,.0001343,87.8897,14.3476,95.6708,264.4574,0,U,45452,999,30709,-.98006764E-3,-.335E-5,0
ONEWEB-0050,2020-020AF,2026-07-20T02:35:44.190240,14.90480481,.00029963,88.9279,228.7382,161.5197,198.6142,0,U,45453,999,34528,.93899794E-4,.938E-5,0
ONEWEB-0034,2020-020AG,2026-07-20T22:35:23.771904,13.11416052,.00018003,87.8897,14.3497,91.3562,268.7772,0,U,45454,999,30701,.14277998E-2,.519E-5,0
ONEWEB-0060,2020-020AH,2026-07-20T21:30:27.229536,13.11417094,.00014832,87.8889,14.3539,125.6764,234.4502,0,U,45455,999,30696,-.14710132E-2,-.509E-5,0
ONEWEB-0086,2020-020AJ,2026-07-20T20:59:44.088576,13.11415548,.00020469,87.8897,14.3562,114.4708,245.6634,0,U,45456,999,30702,-.25008305E-3,-.76E-6,0
ONEWEB-0088,2020-020AK,2026-07-20T22:18:03.972960,13.11417355,.00016065,87.8905,14.3207,79.8760,280.2549,0,U,45457,999,30696,.15862875E-2,.575E-5,0
ONEWEB-0102,2020-100A,2026-07-20T21:46:07.378176,13.12444366,.00020828,87.8970,343.9700,102.5390,257.5972,0,U,47258,999,26915,.32462676E-3,.13E-5,0
ONEWEB-0109,2020-100B,2026-07-20T21:58:19.350336,13.12443716,.00020046,87.8979,343.9549,96.6300,263.5057,0,U,47259,999,26898,.87152832E-3,.326E-5,0
ONEWEB-0110,2020-100C,2026-07-20T20:47:34.897632,13.12442260,.00019004,87.8979,343.9487,106.5034,253.6304,0,U,47260,999,26914,-.20871555E-3,-.62E-6,0
ONEWEB-0111,2020-100D,2026-07-20T21:31:28.912224,13.12443942,.00017545,87.8978,343.9614,99.7244,260.4082,0,U,47261,999,26898,-.43973311E-3,-.145E-5,0
ONEWEB-0114,2020-100E,2026-07-20T22:15:24.323904,13.12442116,.00020573,87.8982,343.9536,94.8995,265.2369,0,U,47262,999,26894,.97207681E-3,.362E-5,0
ONEWEB-0117,2020-100F,2026-07-20T22:03:12.531456,13.12442884,.00018814,87.8979,343.9446,98.4709,261.6633,0,U,47263,999,26895,.95794595E-3,.357E-5,0
ONEWEB-0118,2020-100G,2026-07-20T21:02:12.795936,13.12441231,.00018931,87.8979,343.9559,87.7153,272.4192,0,U,47264,999,26914,-.92247827E-3,-.319E-5,0
ONEWEB-0119,2020-100H,2026-07-20T21:38:48.536160,13.12443938,.00018797,87.8968,343.9646,96.6527,263.4816,0,U,47265,999,26912,-.29472639E-3,-.93E-6,0
ONEWEB-0120,2020-100J,2026-07-20T22:13:10.212096,13.12441805,.00020617,87.8970,343.9615,95.5587,264.5777,0,U,47266,999,26915,.10200291E-2,.38E-5,0
ONEWEB-0121,2020-100K,2026-07-20T21:55:53.148576,13.12443562,.00015972,87.8978,343.9531,103.1217,257.0090,0,U,47267,999,26906,.7651787E-3,.288E-5,0
ONEWEB-0122,2020-100L,2026-07-20T21:47:21.027264,13.12442699,.00020325,87.8979,343.9594,99.2492,260.8866,0,U,47268,999,26897,.3441168E-3,.137E-5,0
ONEWEB-0123,2020-100M,2026-07-20T21:41:14.489952,13.12443763,.00018523,87.8968,343.9635,93.8435,266.2905,0,U,47269,999,26911,.20192947E-4,.2E-6,0
ONEWEB-0124,2020-100N,2026-07-20T21:26:35.975616,13.12443718,.00017493,87.8966,343.9681,98.6358,261.4969,0,U,47270,999,26899,-.875808E-3,-.302E-5,0
ONEWEB-0125,2020-100P,2026-07-20T20:54:53.029440,13.12441833,.00015642,87.8981,343.9598,94.1755,265.9552,0,U,47271,999,26905,-.57498463E-3,-.194E-5,0
ONEWEB-0126,2020-100Q,2026-07-20T21:24:22.595616,13.12443304,.00019692,87.8972,343.9690,95.2860,264.8493,0,U,47272,999,26912,-.91821056E-3,-.318E-5,0
ONEWEB-0127,2020-100R,2026-07-20T09:36:41.140224,13.12442412,.00020134,87.8966,344.0634,97.7856,262.3501,0,U,47273,999,26908,.76961756E-3,.29E-5,0
ONEWEB-0128,2020-100S,2026-07-20T21:07:04.827072,13.12443060,.00018712,87.8966,343.9822,107.1848,252.9485,0,U,47274,999,26916,-.82934134E-3,-.286E-5,0
ONEWEB-0129,2020-100T,2026-07-20T22:27:36.309024,13.12441163,.00029141,87.8978,343.9480,89.3823,270.7639,0,U,47275,999,26910,.4766026E-3,.184E-5,0
