ONEWEB-0068             
1 45446U 20020Y   26201.87650773 -.00001155  00000+0 -32952-2 0  9997
2 45446  87.8893  14.3571 0001699  95.1747 264.9575 13.11418050307010
ONEWEB-0046             
1 45447U 20020Z   26201.86816912  .00000235  00000+0  62643-3 0  9993
2 45447  87.8889  14.3623 0001591  88.0520 272.0790 13.11415356307021
ONEWEB-0063             
1 45448U 20020AA  26201.89713235 -.00000493  00000+0 -14269-2 0  9999
2 45448  87.8898  14.3586 0001815  82.6485 277.4850 13.11417117307112
ONEWEB-0019             
1 45449U 20020AB  26201.93586734  .00000525  00000+0  14461-2 0  9995
2 45449  87.8893  14.3352 0002011  95.8100 264.3257 13.11415800306963
ONEWEB-0094             
1 45450U 20020AC  26201.91861163  .00000010  00000+0 -80278-5 0  9999
2 45450  87.9161 359.1418 0001859 101.1160 259.0181 13.17649298310758
ONEWEB-0087             
1 45451U 20020AD  26201.90703040 -.00000174  00000+0 -52679-3 0  9992
2 45451  87.8907  14.3328 0001596  97.8977 262.2333 13.11418495307007
ONEWEB-0082             
1 45452U 20020AE  26201.90363631 -.00000335  00000+0 -98007-3 0  9995
2 45452  87.8897  14.3476 0001343  95.6708 264.4574 13.11418859307092
ONEWEB-0050             
1 45453U 20020AF  26201.10815035  .00000938  00000+0  93900-4 0  9993
2 45453  88.9279 228.7382 0002996 161.5197 198.6142 14.90480481345286
ONEWEB-0034             
1 45454U 20020AG  26201.94124736  .00000519  00000+0  14278-2 0  9991
2 45454  87.8897  14.3497 0001800  91.3562 268.7772 13.11416052307018
ONEWEB-0060             
1 45455U 20020AH  26201.89614849 -.00000509  00000+0 -14710-2 0  9997
2 45455  87.8889  14.3539 0001483 125.6764 234.4502 13.11417094306960
ONEWEB-0086             
1 45456U 20020AJ  26201.87481584 -.00000076  00000+0 -25008-3 0  9996
2 45456  87.8897  14.3562 0002046 114.4708 245.6634 13.11415548307026
ONEWEB-0088             
1 45457U 20020AK  26201.92921265  .00000575  00000+0  15863-2 0  9997
2 45457  87.8905  14.3207 0001606  79.8760 280.2549 13.11417355306966
ONEWEB-0102             
1 47258U 20100A   26201.90702984  .00000130  00000+0  32463-3 0  9993
2 47258  87.8970 343.9700 0002082 102.5390 257.5972 13.12444366269159
ONEWEB-0109             
1 47259U 20100B   26201.91550174  .00000326  00000+0  87153-3 0  9990
2 47259  87.8979 343.9549 0002004  96.6300 263.5057 13.12443716268987
ONEWEB-0110             
1 47260U 20100C   26201.86637613 -.00000062  00000+0 -20872-3 0  9994
2 47260  87.8979 343.9487 0001900 106.5034 253.6304 13.12442260269146
ONEWEB-0111             
1 47261U 20100D   26201.89686241 -.00000145  00000+0 -43973-3 0  9998
2 47261  87.8978 343.9614 0001754  99.7244 260.4082 13.12443942268989
ONEWEB-0114             
1 47262U 20100E   26201.92736486  .00000362  00000+0  97208-3 0  9999
2 47262  87.8982 343.9536 0002057  94.8995 265.2369 13.12442116268943
ONEWEB-0117             
1 47263U 20100F   26201.91889504  .00000357  00000+0  95795-3 0  9992
2 47263  87.8979 343.9446 0001881  98.4709 261.6633 13.12442884268954
ONEWEB-0118             
1 47264U 20100G   26201.87653699 -.00000319  00000+0 -92248-3 0  9992
2 47264  87.8979 343.9559 0001893  87.7153 272.4192 13.12441231269144
ONEWEB-0119             
1 47265U 20100H   26201.90195065 -.00000093  00000+0 -29473-3 0  9994
2 47265  87.8968 343.9646 0001879  96.6527 263.4816 13.12443938269125
ONEWEB-0120             
1 47266U 20100J   26201.92581264  .00000380  00000+0  10200-2 0  9991
2 47266  87.8970 343.9615 0002061  95.5587 264.5777 13.12441805269155
ONEWEB-0121             
1 47267U 20100K   26201.91380959  .00000288  00000+0  76518-3 0  9991
2 47267  87.8978 343.9531 0001597 103.1217 257.0090 13.12443562269067
ONEWEB-0122             
1 47268U 20100L   26201.90788226  .00000137  00000+0  34412-3 0  9990
2 47268  87.8979 343.9594 0002032  99.2492 260.8866 13.12442699268975
ONEWEB-0123             
1 47269U 20100M   26201.90363993  .00000020  00000+0  20193-4 0  9994
2 47269  87.8968 343.9635 0001852  93.8435 266.2905 13.12443763269110
ONEWEB-0124             
1 47270U 20100N   26201.89347194 -.00000302  00000+0 -87581-3 0  9997
2 47270  87.8966 343.9681 0001749  98.6358 261.4969 13.12443718268995
ONEWEB-0125             
1 47271U 20100P   26201.87144710 -.00000194  00000+0 -57498-3 0  9998
2 47271  87.8981 343.9598 0001564  94.1755 265.9552 13.12441833269058
ONEWEB-0126             
1 47272U 20100Q   26201.89192819 -.00000318  00000+0 -91821-3 0  9990
2 47272  87.8972 343.9690 0001969  95.2860 264.8493 13.12443304269125
ONEWEB-0127             
1 47273U 20100R   26201.40047616  .00000290  00000+0  76962-3 0  9998
2 47273  87.8966 344.0634 0002013  97.7856 262.3501 13.12442412269089
ONEWEB-0128             
1 47274U 20100S   26201.87991698 -.00000286  00000+0 -82934-3 0  9991
2 47274  87.8966 343.9822 0001871 107.1848 252.9485 13.12443060269160
ONEWEB-0129             
1 47275U 20100T   26201.93583691  .00000184  00000+0  47660-3 0  9991
2 47275  87.8978 343.9480 0002914  89.3823 270.7639 13.12441163269102
